[{"OBJECT_NAME":"STARLINK-31678","OBJECT_ID":"2024-071K","EPOCH":"2026-03-09T03:33:43.652160","MEAN_MOTION":15.27584729,"ECCENTRICITY":8.465e-5,"INCLINATION":43.0011,"RA_OF_ASC_NODE":350.518,"ARG_OF_PERICENTER":274.2643,"MEAN_ANOMALY":85.8112,"EPHEMERIS_TYPE":0,"CLASSIFICATION_TYPE":"U","NORAD_CAT_ID":59493,"ELEMENT_SET_NO":999,"REV_AT_EPOCH":10685,"BSTAR":8.625168e-6,"MEAN_MOTION_DOT":-2.5e-7,"MEAN_MOTION_DDOT":0},{"OBJECT_NAME":"BLUEBON","OBJECT_ID":"2025-009CH","EPOCH":"2026-03-09T16:52:33.225312","MEAN_MOTION":15.29047254,"ECCENTRICITY":0.00011933,"INCLINATION":97.4017,"RA_OF_ASC_NODE":152.2033,"ARG_OF_PERICENTER":43.39,"MEAN_ANOMALY":316.7434,"EPHEMERIS_TYPE":0,"CLASSIFICATION_TYPE":"U","NORAD_CAT_ID":62688,"ELEMENT_SET_NO":999,"REV_AT_EPOCH":6376,"BSTAR":0.00037313027,"MEAN_MOTION_DOT":0.00010452,"MEAN_MOTION_DDOT":0}]
